{
  "type": "FeatureCollection",
  "features": [
    {
      "type": "Feature",
      "properties": {
        "norad_id": 50032,
        "name": "COSMOS 1408 DEB",
        "group": "cosmos-1408-debris",
        "lat": 79.89797434111796,
        "lon": -165.04601935368183,
        "alt_km": 428.0064576612076,
        "timestamp": "2025-12-09T05:43:20.996164+00:00",
        "meta_object_name": "COSMOS 1408 DEB",
        "meta_object_id": "1982-092RU",
        "meta_epoch": "2025-12-08T15:19:11.985024",
        "meta_mean_motion": 15.45630719,
        "meta_eccentricity": 0.0014914,
        "meta_inclination": 82.5643,
        "meta_ra_of_asc_node": 62.7122,
        "meta_arg_of_pericenter": 224.4599,
        "meta_mean_anomaly": 135.5454,
        "meta_ephemeris_type": 0,
        "meta_classification_type": "U",
        "meta_norad_cat_id": 50032,
        "meta_element_set_no": 999,
        "meta_rev_at_epoch": 22540,
        "meta_bstar": 0.00015668,
        "meta_mean_motion_dot": 7.615e-05,
        "meta_mean_motion_ddot": 0,
        "tle_line1": "1 50032U 82092RU  25342.63833316  .00007615  00000+0  15668-3 0  9997",
        "tle_line2": "2 50032  82.5643  62.7122 0014914 224.4599 135.5454 15.45630719225405"
      },
      "geometry": {
        "type": "Point",
        "coordinates": [
          -165.04601935368183,
          79.89797434111796
        ]
      }
    },
    {
      "type": "Feature",
      "properties": {
        "norad_id": 50058,
        "name": "COSMOS 1408 DEB",
        "group": "cosmos-1408-debris",
        "lat": 67.45319121731475,
        "lon": 91.21477189015978,
        "alt_km": 362.0390651454136,
        "timestamp": "2025-12-09T05:43:20.996186+00:00",
        "meta_object_name": "COSMOS 1408 DEB",
        "meta_object_id": "1982-092SW",
        "meta_epoch": "2025-12-08T07:55:44.645376",
        "meta_mean_motion": 15.63709561,
        "meta_eccentricity": 0.0016354,
        "meta_inclination": 82.6131,
        "meta_ra_of_asc_node": 73.955,
        "meta_arg_of_pericenter": 114.3465,
        "meta_mean_anomaly": 245.9504,
        "meta_ephemeris_type": 0,
        "meta_classification_type": "U",
        "meta_norad_cat_id": 50058,
        "meta_element_set_no": 999,
        "meta_rev_at_epoch": 22735,
        "meta_bstar": 0.0004087218,
        "meta_mean_motion_dot": 0.00038485,
        "meta_mean_motion_ddot": 0,
        "tle_line1": "1 50058U 82092SW  25342.33037784  .00038485  00000+0  40872-3 0  9991",
        "tle_line2": "2 50058  82.6131  73.9550 0016354 114.3465 245.9504 15.63709561227354"
      },
      "geometry": {
        "type": "Point",
        "coordinates": [
          91.21477189015978,
          67.45319121731475
        ]
      }
    },
    {
      "type": "Feature",
      "properties": {
        "norad_id": 50404,
        "name": "COSMOS 1408 DEB",
        "group": "cosmos-1408-debris",
        "lat": 81.57575771912461,
        "lon": -29.08036790918664,
        "alt_km": 573.7983839811995,
        "timestamp": "2025-12-09T05:43:20.996199+00:00",
        "meta_object_name": "COSMOS 1408 DEB",
        "meta_object_id": "1982-092ADS",
        "meta_epoch": "2025-12-08T16:36:04.913856",
        "meta_mean_motion": 15.1292564,
        "meta_eccentricity": 0.0173605,
        "meta_inclination": 82.2033,
        "meta_ra_of_asc_node": 219.1748,
        "meta_arg_of_pericenter": 212.8662,
        "meta_mean_anomaly": 146.1681,
        "meta_ephemeris_type": 0,
        "meta_classification_type": "U",
        "meta_norad_cat_id": 50404,
        "meta_element_set_no": 999,
        "meta_rev_at_epoch": 21132,
        "meta_bstar": 0.0033998,
        "meta_mean_motion_dot": 0.00087766,
        "meta_mean_motion_ddot": 0,
        "tle_line1": "1 50404U 82092ADS 25342.69172354  .00087766  00000+0  33998-2 0  9994",
        "tle_line2": "2 50404  82.2033 219.1748 0173605 212.8662 146.1681 15.12925640211325"
      },
      "geometry": {
        "type": "Point",
        "coordinates": [
          -29.08036790918664,
          81.57575771912461
        ]
      }
    },
    {
      "type": "Feature",
      "properties": {
        "norad_id": 50621,
        "name": "COSMOS 1408 DEB",
        "group": "cosmos-1408-debris",
        "lat": 1.3139951068522795,
        "lon": -102.3464158050163,
        "alt_km": 382.1004168773343,
        "timestamp": "2025-12-09T05:43:20.996211+00:00",
        "meta_object_name": "COSMOS 1408 DEB",
        "meta_object_id": "1982-092ALR",
        "meta_epoch": "2025-12-08T18:09:24.571296",
        "meta_mean_motion": 15.56343365,
        "meta_eccentricity": 0.0028837,
        "meta_inclination": 82.5706,
        "meta_ra_of_asc_node": 78.3265,
        "meta_arg_of_pericenter": 167.0351,
        "meta_mean_anomaly": 193.1653,
        "meta_ephemeris_type": 0,
        "meta_classification_type": "U",
        "meta_norad_cat_id": 50621,
        "meta_element_set_no": 999,
        "meta_rev_at_epoch": 22188,
        "meta_bstar": 0.00048241,
        "meta_mean_motion_dot": 0.00034742,
        "meta_mean_motion_ddot": 0,
        "tle_line1": "1 50621U 82092ALR 25342.75653439  .00034742  00000+0  48241-3 0  9994",
        "tle_line2": "2 50621  82.5706  78.3265 0028837 167.0351 193.1653 15.56343365221886"
      },
      "geometry": {
        "type": "Point",
        "coordinates": [
          -102.3464158050163,
          1.3139951068522795
        ]
      }
    }
  ]
}